[{"OBJECT_NAME":"STARLINK-32163","OBJECT_ID":"2024-131H","EPOCH":"2026-03-09T06:11:52.383552","MEAN_MOTION":15.30181151,"ECCENTRICITY":0.0001361,"INCLINATION":53.1598,"RA_OF_ASC_NODE":54.3553,"ARG_OF_PERICENTER":94.2219,"MEAN_ANOMALY":265.8937,"EPHEMERIS_TYPE":0,"CLASSIFICATION_TYPE":"U","NORAD_CAT_ID":60262,"ELEMENT_SET_NO":999,"REV_AT_EPOCH":9165,"BSTAR":0.00022064839,"MEAN_MOTION_DOT":6.177e-5,"MEAN_MOTION_DDOT":0},{"OBJECT_NAME":"CERISE","OBJECT_ID":"1995-033B","EPOCH":"2026-03-09T23:11:27.589056","MEAN_MOTION":15.32047731,"ECCENTRICITY":0.00057118,"INCLINATION":98.325,"RA_OF_ASC_NODE":273.5192,"ARG_OF_PERICENTER":211.8754,"MEAN_ANOMALY":148.214,"EPHEMERIS_TYPE":0,"CLASSIFICATION_TYPE":"U","NORAD_CAT_ID":23606,"ELEMENT_SET_NO":999,"REV_AT_EPOCH":66468,"BSTAR":0.00062940675,"MEAN_MOTION_DOT":0.00019422,"MEAN_MOTION_DDOT":0}]
